#dP2019 11 10  0  0  0.00000000      96 __u+U ITR00 FIT  IAC
## 2079      0.00000000   900.00000000 58797 0.0000000000000
+  105   C06C07C08C09C10C11C13C14C16C18C19C20C21C22C23C24C25
+        C26C27C28C29C30C32C33C34C35C36C37E01E02E03E04E05E07
+        E08E09E12E13E14E15E18E19E21E24E25E26E27E30E31E33E36
+        G01G02G03G04G05G06G07G08G09G10G11G12G13G14G15G16G17
+        G18G19G20G21G22G23G24G25G26G27G28G29G30G31G32R01R02
+        R03R05R07R08R09R11R12R13R14R15R16R17R18R19R20R21R22
+        R23R24R26  0  0  0  0  0  0  0  0  0  0  0  0  0  0
++         8  8  8  8  8  7  8  8  8 13  8  8  8  8  8  8  8
++         7  8  8  7  7  8  8  7  8  0  9  4  5  5  4  4  4
++         5  4  5  4  4  4  5  4  4  5  5  4  4  4  4  4  5
++         3  4  3  4  3  3  4  4  3  4  4  4  4  3  4  3  3
++         4  3  4  4  3  3  4  3  3  4  3  4  4  3  4  6  5
++         5  5  5  6  5  5  5  6  6  6  6  5  5  6  6  5  5
++         5  6  8  0  0  0  0  0  0  0  0  0  0  0  0  0  0
%c M  cc GPS ccc cccc cccc cccc cccc ccccc ccccc ccccc ccccc
%c cc cc ccc ccc cccc cccc cccc cccc ccccc ccccc ccccc ccccc
%f  0.0000000  0.000000000  0.00000000000  0.000000000000000
%f  0.0000000  0.000000000  0.00000000000  0.000000000000000
%i    0    0    0    0      0      0      0      0         0
%i    0    0    0    0      0      0      0      0         0
/* INFORMATION & ANALYSIS CENTER (IAC)      ULTRA-RAPID DATA
/* S/V CLOCKS ARE ALIGNED TO GNSS TIME                      
/* G:C1WC2W R:C1PC2P E:C1XC5X C:C2IC6I J:C1CC2S             
/* PCV:IGS14_2076 OL/AL:FES2004  NONE     YN ORB:CoN CLK:CoN
*  2019 11 10 23 30  0.00000000
PC06 -25041.791320  31240.151426 -13497.377453    324.417463
PC07 -10415.246509  34335.494936 -21574.217669   -254.762058
PC08 -13156.773772  17966.186598  35859.165100    -31.126749
PC09 -10267.320990  30658.281021 -27035.678770    106.449252
PC10   1205.945871  40887.382602  -9138.431742   -354.234888
PC11  -4789.301228  16602.341122  21957.644613      5.101679
PC13   3347.103075  24995.652715  33910.911260     99.578032
PC14  -3054.042153  27484.562137  -3505.797120    112.651948
PC16 -21846.172426  31987.126429 -16836.685745   -914.962631
PC18   7291.415741  41532.089980   -160.419514      8.930463
PC19  -3514.263964 -24976.003169  11969.891022    241.691211
PC20   8779.115095 -26026.721742  -4999.660752   -275.990962
PC21 -16252.633333  11556.355980  19521.162596    191.394183
PC22 -13946.400782  -9426.459322  22256.740465   -345.910750
PC23  22851.813025  14652.448691   6480.982766   -883.946009
PC24  -4811.298851  16607.019863 -21906.209685   -879.672222
PC25  13650.283702  21853.868593 -10737.274858   -409.825196
PC26 -19074.828758   2361.585153 -20220.442075    455.765482
PC27  26527.469785  -8619.611409   -607.261229    222.816510
PC28  22544.246122   4510.838574  15832.305647    213.965269
PC29  -5976.022680 -14743.093432 -22929.576383    144.369918
PC30  14562.594358 -17183.891912 -16462.225011    222.334326
PC32  16176.142377 -11694.693446 -19498.872814   -872.197163
PC33   3596.052220  24982.293994 -11889.886873   -555.526680
PC34 -14316.474756  17218.226000  16663.040259   -223.819411
PC35 -22644.839362  -3846.395973 -15861.752757 999999.999999
PC36      0.000000      0.000000      0.000000 999999.999999
PC37  19462.810918  -1389.013017  19980.471097   -732.662406
PE01  16928.504467  -1557.303930  24239.510247   -729.196886
PE02 -16891.836138   1643.505776 -24242.796837     91.030312
PE03 -22169.780955  11844.336686  15614.580905   -231.633591
PE04  16189.492093 -24716.834647   1790.918999   -403.196873
PE05 -15224.206251  -8101.712775  24051.993492   -432.366807
PE07   -574.049574  23188.882558 -18383.045213   -297.438053
PE08 -15903.825398  24878.909936  -1970.120492   6264.952742
PE09    461.468056 -23116.771449  18488.952682   6256.909901
PE12  14752.250523 -13275.798311 -21954.946719   6106.132441
PE13   8039.281762  16154.235739  23472.400523    395.244470
PE14 -24640.268340  12268.120610  -3861.233843   -789.698937
PE15 -14377.108200  13394.281620  22143.311195    888.264264
PE18  17058.371578 -21663.168197 -11297.377606   -884.570728
PE19  21952.284372  -9960.106419 -17179.651413     -2.967073
PE21  18514.207496  18467.035520  13873.927120   -565.199684
PE24  -9080.354188 -27782.280823   4613.520328   5773.796803
PE25 -18484.997837 -18556.604553 -13777.846030   -495.382892
PE26  25831.064336   9613.179338  10819.187763   3891.644195
PE27   9204.749676  27740.525963  -4682.726027    348.368247
PE30  -5643.585123  20679.471067 -20417.164133   4395.022770
PE31   5494.308104 -20696.654610  20451.824517   -470.416362
PE33  28418.157093  -2760.582728  -7808.906233   -471.759610
PE36 -25787.062715  -9442.888171 -11031.793608    638.428968
PG01 -21287.562594 -14589.067684  -7152.840912   -193.048630
PG02   1922.461232  16598.758072  21293.678683   -344.207015
PG03 -13130.178028 -16646.033087  15993.556221    -34.789867
PG04 -23067.643586   6213.215153  11556.276072     -7.738936
PG05   3078.635912  26244.629375   1057.832838     -3.305596
PG06 -12954.771820   9875.518736  21029.459208   -119.640199
PG07 -24998.306154  -4914.397892  -8046.879364   -146.093186
PG08  -6046.491780 -14053.213774 -21653.689645    -12.928829
PG09 -21689.480169   3274.803562  14927.552902    -80.109318
PG10  12145.220515 -13000.707867 -19584.806459   -129.610545
PG11 -20134.532048 -10133.987284 -14317.204510   -451.851248
PG12   9332.582327  21534.515386  12373.935188    184.840269
PG13  -4013.113092  17690.857939 -19496.082871    -33.590566
PG14  15545.843577 -18687.323438  10807.027892    -51.206837
PG15   8825.687114  13564.723517 -21326.672737   -273.556053
PG16   1090.392803 -26131.163376   2759.306268    -91.910593
PG17 -21676.289285  15254.350451   1141.109385    160.661688
PG18 -15120.892462 -16650.748969 -14704.742071     99.294050
PG19 -18916.005900  17020.215348   7352.331940   -241.505261
PG20  15775.284968  -2315.037282 -21350.815534    527.432528
PG21  23937.065148    637.985602 -10476.435243    -88.106613
PG22 -11680.469732 -21988.392618   9604.832971   -770.767728
PG23 -16318.887829  -6117.514236  20485.373179   -156.282200
PG24  20403.318686  14697.884911  -9258.557151     -4.693751
PG25  15021.865028   7462.195190  20441.193717    -16.981496
PG26   5683.676676 -22650.198255  12448.943972     81.436746
PG27   6168.680782 -19138.912956 -17301.275045   -115.901376
PG28 -12260.323267  13470.065605 -18769.037935    755.621158
PG29  21042.418927   -839.619036  16169.964697     47.615649
PG30 -19969.989019   4266.147772 -17054.634654    -81.075934
PG31  11456.382005 -11126.209509  21270.195091     -2.344078
PG32  20844.100633 -16335.000167    644.433487    120.887834
PR01  11680.937947 -21868.135178  -6036.200758     52.487704
PR02   1407.997803 -21063.489166  14306.996069    397.139827
PR03  -8916.188442  -7023.780158  22871.864054      4.624052
PR05 -11092.956929  22724.663997   3442.339671     39.178617
PR07   9103.530239   6563.280662 -22881.981575    -29.247706
PR08  13936.875711 -10874.019156 -18339.420999     14.518140
PR09  12820.014634  21218.670389  -5841.454806    100.417678
PR11  13699.527551    710.406770  21515.087392     20.400199
PR12   2168.933157 -13721.401701  21420.994995     78.108388
PR13 -11463.421866 -21090.300188   8623.482142    -30.756957
PR14 -17731.332805 -16035.185538  -8897.897230     44.940141
PR15 -14011.007314  -1728.155430 -21218.531828    104.696070
PR16  -1704.686397  14182.317024 -21179.471016      0.671903
PR17 -20227.396299  -4237.803354 -14908.669318    275.070271
PR18 -25218.514141   3793.175198   1270.724376     14.068663
PR19 -17006.445104   9249.529779  16605.404812    -63.302589
PR20   3125.323445  10098.738098  23221.790189   -395.816136
PR21  20785.939575   3852.582128  14303.872311    -84.438924
PR22  24583.731939  -4969.764353  -4305.043024   -184.270478
PR23  11313.187999 -10579.516580 -20274.777000    266.005879
PR24  -5725.371970  -9661.470059 -22925.663681   -186.616486
PR26   -639.496398  10585.690084  23210.111583      8.178352
EOF
